NORAD_CAT_ID,OBJECT_NAME,OBJECT_TYPE,EPOCH,MEAN_MOTION,ECCENTRICITY,INCLINATION,RA_OF_ASC_NODE,ARG_OF_PERICENTER,MEAN_ANOMALY,BSTAR,MEAN_MOTION_DOT,MEAN_MOTION_DDOT,TLE_LINE0,TLE_LINE1,TLE_LINE2,SEMIMAJOR_AXIS,PERIOD,APOGEE,PERIGEE,DECAYED
53636.0,STARLINK-4586,PAYLOAD,2023-11-29 02:02:09,15.08857287,0.0002448,53.2181,357.1722,88.9649,271.1623,0.00053941,8.311e-05,0.0,0 STARLINK-4586,1 53636U 22104BA  23333.08483683  .00008311  00000-0  53941-3 0  9994,2 53636  53.2181 357.1722 0002448  88.9649 271.1623 15.08857287 69664,6917.828,95.436,541.386,537.999,0.0
53636.0,STARLINK-4586,PAYLOAD,2023-11-29 08:23:42,15.08851273,0.000233,53.2184,355.9812,99.3828,260.7427,0.00047283,7.247e-05,0.0,0 STARLINK-4586,1 53636U 22104BA  23333.34979555  .00007247  00000-0  47283-3 0  9990,2 53636  53.2184 355.9812 0002330  99.3828 260.7427 15.08851273 70722,6917.846,95.437,541.323,538.099,0.0
53636.0,STARLINK-4586,PAYLOAD,2023-11-30 01:52:56,15.08849394,0.0002508,53.2192,352.7102,109.0102,251.1162,4.8052e-05,4.77e-06,0.0,0 STARLINK-4586,1 53636U 22104BA  23334.07843093  .00000477  00000-0  48052-4 0  9992,2 53636  53.2192 352.7102 0002508 109.0102 251.1162 15.08849394 69818,6917.852,95.437,541.452,537.982,0.0
53636.0,STARLINK-4586,PAYLOAD,2023-11-30 08:14:29,15.08844203,0.0002493,53.219,351.523,108.4305,251.6959,-5.4191e-05,-1.151e-05,0.0,0 STARLINK-4586,1 53636U 22104BA  23334.34339274 -.00001151  00000-0 -54191-4 0  9996,2 53636  53.2190 351.5230 0002493 108.4305 251.6959 15.08844203 69853,6917.868,95.437,541.457,538.008,0.0
53636.0,STARLINK-4586,PAYLOAD,2023-12-01 03:19:07,15.08837941,0.000199,53.2171,347.9493,101.8581,258.2635,-6.1106e-05,-1.261e-05,0.0,0 STARLINK-4586,1 53636U 22104BA  23335.13827985 -.00001261  00000-0 -61106-4 0  9991,2 53636  53.2171 347.9493 0001990 101.8581 258.2635 15.08837941 69974,6917.887,95.438,541.128,538.375,0.0
53636.0,STARLINK-4586,PAYLOAD,2023-12-01 08:05:16,15.08846228,0.0002003,53.2181,347.0567,105.8754,254.2459,4.1737e-06,-2.22e-06,0.0,0 STARLINK-4586,1 53636U 22104BA  23335.33699318 -.00000222  00000-0  41737-5 0  9994,2 53636  53.2181 347.0567 0002003 105.8754 254.2459 15.08846228 70004,6917.861,95.437,541.112,538.341,0.0
53636.0,STARLINK-4586,PAYLOAD,2023-12-02 11:06:47,15.088659,0.0002222,53.2187,341.9981,105.5626,254.5612,0.00028206,4.207e-05,0.0,0 STARLINK-4586,1 53636U 22104BA  23336.46304946  .00004207  00000-0  28206-3 0  9999,2 53636  53.2187 341.9981 0002222 105.5626 254.5612 15.08865900 70171,6917.801,95.436,541.203,538.129,0.0
53636.0,STARLINK-4586,PAYLOAD,2023-12-03 09:22:15,15.08812572,0.0001845,53.2181,337.8405,85.9477,274.1726,-9.4118e-05,-1.785e-05,0.0,0 STARLINK-4586,1 53636U 22104BA  23337.39046228 -.00001785  00000-0 -94118-4 0  9994,2 53636  53.2181 337.8405 0001845  85.9477 274.1726 15.08812572 70312,6917.964,95.439,541.106,538.553,0.0
53636.0,STARLINK-4586,PAYLOAD,2023-12-03 14:08:25,15.0882486,0.0002389,53.2185,336.9507,65.5532,294.5709,-0.00019609,-3.407e-05,0.0,0 STARLINK-4586,1 53636U 22104BA  23337.58918037 -.00003407  00000-0 -19609-3 0  9995,2 53636  53.2185 336.9507 0002389  65.5532 294.5709 15.08824860 70342,6917.927,95.439,541.444,538.139,0.0
53636.0,STARLINK-4586,PAYLOAD,2023-12-04 09:13:00,15.08859746,0.0002382,53.2193,333.3755,78.891,281.235,4.0688e-05,3.6e-06,0.0,0 STARLINK-4586,1 53636U 22104BA  23338.38403027  .00000360  00000-0  40688-4 0  9997,2 53636  53.2193 333.3755 0002382  78.8910 281.2350 15.08859746 70466,6917.82,95.436,541.333,538.037,0.0
53636.0,STARLINK-4586,PAYLOAD,2023-12-05 09:03:48,15.08824649,0.0002452,53.2188,328.9134,86.2701,273.8571,0.00058527,9.035e-05,0.0,0 STARLINK-4586,1 53636U 22104BA  23339.37764082  .00009035  00000-0  58527-3 0  9996,2 53636  53.2188 328.9134 0002452  86.2701 273.8571 15.08824649 70613,6917.927,95.439,541.489,538.096,0.0
53636.0,STARLINK-4586,PAYLOAD,2023-12-06 04:08:25,15.08851528,0.0002546,53.2191,325.3409,91.964,268.1644,-1.3266e-05,-5e-06,0.0,0 STARLINK-4586,1 53636U 22104BA  23340.17251673 -.00000500  00000-0 -13266-4 0  9995,2 53636  53.2191 325.3409 0002546  91.9640 268.1644 15.08851528 70739,6917.845,95.437,541.471,537.949,0.0
53636.0,STARLINK-4586,PAYLOAD,2023-12-06 08:54:34,15.08852156,0.0002397,53.2186,324.4552,83.7507,276.3758,-2.8466e-05,-7.42e-06,0.0,0 STARLINK-4586,1 53636U 22104BA  23340.37123597 -.00000742  00000-0 -28466-4 0  9996,2 53636  53.2186 324.4552 0002397  83.7507 276.3758 15.08852156 71788,6917.843,95.437,541.366,538.05,0.0
53636.0,STARLINK-4586,PAYLOAD,2023-12-07 03:59:12,15.0883997,0.0002668,53.2189,320.8819,111.6257,248.502,-3.2665e-05,-8.08e-06,0.0,0 STARLINK-4586,1 53636U 22104BA  23341.16611833 -.00000808  00000-0 -32665-4 0  9998,2 53636  53.2189 320.8819 0002668 111.6257 248.5020 15.08839970 70883,6917.88,95.438,541.591,537.9,0.0
53636.0,STARLINK-4586,PAYLOAD,2023-12-07 05:34:36,15.08843195,0.000241,53.2195,320.5874,96.843,263.2837,-0.00014189,-2.546e-05,0.0,0 STARLINK-4586,1 53636U 22104BA  23341.23236137 -.00002546  00000-0 -14189-3 0  9997,2 53636  53.2195 320.5874 0002410  96.8430 263.2837 15.08843195 71919,6917.871,95.437,541.403,538.068,0.0
53636.0,STARLINK-4586,PAYLOAD,2023-12-08 08:36:09,15.0882867,0.0002384,53.218,315.5334,101.1533,258.9728,3.3494e-05,2.45e-06,0.0,0 STARLINK-4586,1 53636U 22104BA  23342.35844645  .00000245  00000-0  33494-4 0  9993,2 53636  53.2180 315.5334 0002384 101.1533 258.9728 15.08828670 71069,6917.915,95.438,541.429,538.131,0.0
53636.0,STARLINK-4586,PAYLOAD,2023-12-09 03:40:47,15.08836945,0.0002251,53.218,311.9683,94.84,265.285,7.8114e-05,9.55e-06,0.0,0 STARLINK-4586,1 53636U 22104BA  23343.15332282  .00000955  00000-0  78114-4 0  9997,2 53636  53.2180 311.9683 0002251  94.8400 265.2850 15.08836945 71184,6917.89,95.438,541.312,538.198,0.0
53636.0,STARLINK-4586,PAYLOAD,2023-12-09 08:26:56,15.08838338,0.0002257,53.218,311.0759,95.4456,264.6794,8.5883e-05,1.079e-05,0.0,0 STARLINK-4586,1 53636U 22104BA  23343.35204215  .00001079  00000-0  85883-4 0  9992,2 53636  53.2180 311.0759 0002257  95.4456 264.6794 15.08838338 72238,6917.885,95.438,541.312,538.189,0.0
53636.0,STARLINK-4586,PAYLOAD,2023-12-09 22:45:24,15.08836791,0.0002272,53.2174,308.3994,98.3877,261.7373,5.2137e-05,5.41e-06,0.0,0 STARLINK-4586,1 53636U 22104BA  23343.94820495  .00000541  00000-0  52137-4 0  9990,2 53636  53.2174 308.3994 0002272  98.3877 261.7373 15.08836791 72329,6917.89,95.438,541.327,538.183,0.0
53636.0,STARLINK-4586,PAYLOAD,2023-12-10 06:42:20,15.08839003,0.0002221,53.2171,306.9122,94.5361,265.5885,6.6874e-05,7.76e-06,0.0,0 STARLINK-4586,1 53636U 22104BA  23344.27940404  .00000776  00000-0  66874-4 0  9993,2 53636  53.2171 306.9122 0002221  94.5361 265.5885 15.08839003 71354,6917.883,95.438,541.285,538.212,0.0
53636.0,STARLINK-4586,PAYLOAD,2023-12-10 21:00:49,15.08837807,0.0002484,53.2187,304.2365,97.3739,262.7535,1.6747e-05,-2.2e-07,0.0,0 STARLINK-4586,1 53636U 22104BA  23344.87556737 -.00000022  00000-0  16747-4 0  9990,2 53636  53.2187 304.2365 0002484  97.3739 262.7535 15.08837807 72466,6917.887,95.438,541.47,538.034,0.0
53636.0,STARLINK-4586,PAYLOAD,2023-12-11 04:57:44,15.08833227,0.000231,53.2181,302.7486,92.092,268.0337,9.2966e-05,1.191e-05,0.0,0 STARLINK-4586,1 53636U 22104BA  23345.20676800  .00001191  00000-0  92966-4 0  9996,2 53636  53.2181 302.7486 0002310  92.0920 268.0337 15.08833227 71492,6917.901,95.438,541.364,538.168,0.0
53636.0,STARLINK-4586,PAYLOAD,2023-12-12 03:13:08,15.08845722,0.0002243,53.2176,298.5873,90.2314,269.8935,5.2531e-05,5.48e-06,0.0,0 STARLINK-4586,1 53636U 22104BA  23346.13412112  .00000548  00000-0  52531-4 0  9992,2 53636  53.2176 298.5873 0002243  90.2314 269.8935 15.08845722 71632,6917.863,95.437,541.28,538.176,0.0
53636.0,STARLINK-4586,PAYLOAD,2023-12-12 04:48:31,15.08848239,0.0002223,53.2176,298.2901,88.8437,271.281,7.0693e-05,8.37e-06,0.0,0 STARLINK-4586,1 53636U 22104BA  23346.20035922  .00000837  00000-0  70693-4 0  9990,2 53636  53.2176 298.2901 0002223  88.8437 271.2810 15.08848239 72667,6917.855,95.437,541.258,538.182,0.0
53636.0,STARLINK-4586,PAYLOAD,2023-12-13 03:03:55,15.08839418,0.000231,53.2178,294.1278,82.6036,277.5219,4.364e-05,4.06e-06,0.0,0 STARLINK-4586,1 53636U 22104BA  23347.12772542  .00000406  00000-0  43640-4 0  9992,2 53636  53.2178 294.1278 0002310  82.6036 277.5219 15.08839418 71788,6917.882,95.438,541.345,538.149,0.0
53636.0,STARLINK-4586,PAYLOAD,2023-12-14 02:54:40,15.08860288,0.0002238,53.2181,289.6636,83.6884,276.4363,6.3722e-05,7.26e-06,0.0,0 STARLINK-4586,1 53636U 22104BA  23348.12130610  .00000726  00000-0  63722-4 0  9995,2 53636  53.2181 289.6636 0002238  83.6884 276.4363 15.08860288 71934,6917.818,95.436,541.232,538.135,0.0
53636.0,STARLINK-4586,PAYLOAD,2023-12-15 02:45:29,15.0883867,0.000203,53.2178,285.2066,92.8189,267.3036,-5.805e-05,-1.212e-05,0.0,0 STARLINK-4586,1 53636U 22104BA  23349.11492153 -.00001212  00000-0 -58050-4 0  9999,2 53636  53.2178 285.2066 0002030  92.8189 267.3036 15.08838670 72082,6917.884,95.438,541.154,538.345,0.0
53636.0,STARLINK-4586,PAYLOAD,2023-12-16 02:36:17,15.08836247,0.0002129,53.2175,280.7474,98.2252,261.8982,-0.00018002,-3.152e-05,0.0,0 STARLINK-4586,1 53636U 22104BA  23350.10853135 -.00003152  00000-0 -18002-3 0  9998,2 53636  53.2175 280.7474 0002129  98.2252 261.8982 15.08836247 72236,6917.892,95.438,541.23,538.284,0.0
53636.0,STARLINK-4586,PAYLOAD,2023-12-17 00:51:40,15.08833984,0.0002125,53.2176,276.5837,98.5548,261.5685,0.00011954,1.614e-05,0.0,0 STARLINK-4586,1 53636U 22104BA  23351.03588694  .00001614  00000-0  11954-3 0  9994,2 53636  53.2176 276.5837 0002125  98.5548 261.5685 15.08833984 72377,6917.899,95.438,541.234,538.294,0.0
53636.0,STARLINK-4586,PAYLOAD,2023-12-18 02:17:50,15.08850485,0.0001911,53.2164,271.8261,86.819,273.302,0.00019467,2.812e-05,0.0,0 STARLINK-4586,1 53636U 22104BA  23352.09571885  .00002812  00000-0  19467-3 0  9993,2 53636  53.2164 271.8261 0001911  86.8190 273.3020 15.08850485 72535,6917.848,95.437,541.035,538.391,0.0
